{
    "links": {
        "self": "http://www.neowsapp.com/rest/v1/neo/3553433?api_key=iIulBulltgU6a56xZRHN4H3l9WmuAYTsLGpBGhQ2"
    },
    "id": "3553433",
    "neo_reference_id": "3553433",
    "name": "(2010 XS45)",
    "designation": "2010 XS45",
    "nasa_jpl_url": "http://ssd.jpl.nasa.gov/sbdb.cgi?sstr=3553433",
    "absolute_magnitude_h": 26.6,
    "estimated_diameter": {
        "kilometers": {
            "estimated_diameter_min": 0.0127219879,
            "estimated_diameter_max": 0.0284472297
        },
        "meters": {
            "estimated_diameter_min": 12.7219878539,
            "estimated_diameter_max": 28.4472296503
        },
        "miles": {
            "estimated_diameter_min": 0.0079050743,
            "estimated_diameter_max": 0.0176762835
        },
        "feet": {
            "estimated_diameter_min": 41.7388066307,
            "estimated_diameter_max": 93.330808926
        }
    },
    "is_potentially_hazardous_asteroid": false,
    "close_approach_data": [
        {
            "close_approach_date": "2008-05-02",
            "close_approach_date_full": "2008-May-02 21:28",
            "epoch_date_close_approach": 1209763680000,
            "relative_velocity": {
                "kilometers_per_second": "17.3460591171",
                "kilometers_per_hour": "62445.81282138",
                "miles_per_hour": "38801.3996389291"
            },
            "miss_distance": {
                "astronomical": "0.1644393868",
                "lunar": "63.9669214652",
                "kilometers": "24599782.009386116",
                "miles": "15285595.7381397608"
            },
            "orbiting_body": "Earth"
        },
        {
            "close_approach_date": "2010-12-05",
            "close_approach_date_full": "2010-Dec-05 12:53",
            "epoch_date_close_approach": 1291553580000,
            "relative_velocity": {
                "kilometers_per_second": "12.8647789926",
                "kilometers_per_hour": "46313.2043732927",
                "miles_per_hour": "28777.2241285051"
            },
            "miss_distance": {
                "astronomical": "0.0088396432",
                "lunar": "3.4386212048",
                "kilometers": "1322391.794279984",
                "miles": "821696.1584084192"
            },
            "orbiting_body": "Moon"
        },
        {
            "close_approach_date": "2010-12-05",
            "close_approach_date_full": "2010-Dec-05 20:39",
            "epoch_date_close_approach": 1291581540000,
            "relative_velocity": {
                "kilometers_per_second": "12.8383674354",
                "kilometers_per_hour": "46218.1227675307",
                "miles_per_hour": "28718.1441163026"
            },
            "miss_distance": {
                "astronomical": "0.0081761369",
                "lunar": "3.1805172541",
                "kilometers": "1223132.665068403",
                "miles": "760019.3955058414"
            },
            "orbiting_body": "Earth"
        }
    ],
    "orbital_data": {
        "orbit_id": "6",
        "orbit_determination_date": "2017-04-06 08:55:15",
        "first_observation_date": "2010-12-08",
        "last_observation_date": "2010-12-11",
        "data_arc_in_days": 3,
        "observations_used": 14,
        "orbit_uncertainty": "9",
        "minimum_orbit_intersection": ".00818439",
        "jupiter_tisserand_invariant": "5.643",
        "epoch_osculation": "2455540.5",
        "eccentricity": ".3954140844493263",
        "semi_major_axis": "1.081839951729478",
        "inclination": "6.09722531818043",
        "ascending_node_longitude": "257.7612367408236",
        "orbital_period": "411.0010679398735",
        "perihelion_distance": ".6540651976956632",
        "perihelion_argument": "74.6295545385303",
        "aphelion_distance": "1.509614705763293",
        "perihelion_time": "2455473.402030668282",
        "mean_anomaly": "58.77179122792991",
        "mean_motion": ".8759101327996196",
        "equinox": "J2000",
        "orbit_class": {
            "orbit_class_type": "APO",
            "orbit_class_description": "Near-Earth asteroid orbits which cross the Earth’s orbit similar to that of 1862 Apollo",
            "orbit_class_range": "a (semi-major axis) > 1.0 AU; q (perihelion) < 1.017 AU"
        }
    },
    "is_sentry_object": false
}